QIANFAN-60              
1 62790U 25016F   26025.25548712  .00000153  00000+0  21799-3 0  9996
2 62790  88.9735  98.5764 0015239 210.7047 149.3214 13.50987323 53100
QIANFAN-61              
1 62791U 25016G   26025.28844852  .00000139  00000+0  19664-3 0  9996
2 62791  88.9803  98.7656 0014188 209.4727 150.5626 13.50988673 53123
QIANFAN-62              
1 62792U 25016H   26025.21850292  .00000139  00000+0  19723-3 0  9991
2 62792  88.9749  98.6178 0015547 210.7068 149.3175 13.50991253 53105
QIANFAN-63              
1 62793U 25016J   26025.24317564  .00000143  00000+0  20207-3 0  9999
2 62793  88.9756  98.5696 0015433 216.1982 143.8126 13.50989521 53141
QIANFAN-64              
1 62794U 25016K   26025.28432246  .00000137  00000+0  19372-3 0  9993
2 62794  88.9742  98.5336 0013617 207.7366 152.3060 13.50988010 53146
QIANFAN-65              
1 62795U 25016L   26025.28026683  .00000126  00000+0  17678-3 0  9993
2 62795  88.9739  98.5585 0013410 209.4071 150.6327 13.50986688 53126
QIANFAN-66              
1 62796U 25016M   26025.23494287  .00000156  00000+0  22271-3 0  9996
2 62796  88.9759  98.5418 0014661 205.6645 154.3780 13.50991567 53168
QIANFAN-67              
1 62797U 25016N   26025.23905363  .00000144  00000+0  20504-3 0  9993
2 62797  88.9749  98.5627 0014392 212.7179 147.3082 13.50995806 53136
QIANFAN-68              
1 62798U 25016P   26025.23084863  .00000157  00000+0  22488-3 0  9994
2 62798  88.9752  98.6104 0014508 210.9328 149.0970 13.50987735 53112
QIANFAN-69              
1 62799U 25016Q   26025.24729640  .00000141  00000+0  19957-3 0  9995
2 62799  88.9731  98.4687 0015203 212.4011 147.6208 13.50988054 53150
QIANFAN-70              
1 62800U 25016R   26025.26380286  .00000153  00000+0  21779-3 0  9997
2 62800  88.9752  98.6147 0015142 202.3228 157.7266 13.50991875 53116
QIANFAN-71              
1 62801U 25016S   26025.25961030  .00000152  00000+0  21635-3 0  9999
2 62801  88.9746  98.5920 0015006 215.9965 144.0176 13.50991201 53117
QIANFAN-72              
1 62802U 25016T   26025.27605869  .00000138  00000+0  19521-3 0  9992
2 62802  88.9737  98.5994 0018021 224.6914 135.2786 13.50991154 53105
QIANFAN-73              
1 63159U 25046A   26025.30317414  .00000289  00000+0  42843-3 0  9991
2 63159  88.9796 315.5219 0015676   5.0123 355.1183 13.50994237 53293
QIANFAN-74              
1 63160U 25046B   26025.28667199  .00000285  00000+0  42266-3 0  9993
2 63160  88.9796 315.4124 0001827  68.9126 291.2221 13.50991555 53353
QIANFAN-75              
1 63161U 25046C   26025.27381298  .00000201  00000+0  29294-3 0  9990
2 63161  88.9798 315.6480 0016979   7.4298 352.7102 13.50990081 53225
QIANFAN-76              
1 63162U 25046D   26025.19637202  .00000296  00000+0  43978-3 0  9990
2 63162  88.9796 315.6363 0014571   9.2566 350.8851 13.50997136 53226
QIANFAN-77              
1 63163U 25046E   26025.26231378  .00000700  00000+0  50002-3 0  9999
2 63163  88.9795 313.2798 0013633 312.3286  47.6735 13.96137187 54525
QIANFAN-78              
1 63164U 25046F   26025.31135261  .00000300  00000+0  44632-3 0  9998
2 63164  88.9795 315.4880 0015996  10.4342 349.7138 13.50996256 53314
QIANFAN-79              
1 63165U 25046G   26025.26596085  .00000292  00000+0  43398-3 0  9996
2 63165  88.9799 315.6019 0015662   9.0454 351.0976 13.50993261 53255
QIANFAN-80              
1 63166U 25046H   26025.28247998  .00000296  00000+0  43938-3 0  9999
2 63166  88.9797 315.3060 0014736  13.4065 346.7475 13.50996013 53416
QIANFAN-81              
1 63167U 25046J   26025.26007798  .00000176  00000+0  25378-3 0  9995
2 63167  88.9796 315.3760 0015445   3.0404 357.0838 13.50967850 53362
QIANFAN-82              
1 63168U 25046K   26025.22089258  .00000290  00000+0  43081-3 0  9991
2 63168  88.9797 315.4242 0013796  10.5891 349.5548 13.50995081 53349
QIANFAN-83              
1 63169U 25046L   26025.26443143  .00000355  00000+0  44470-3 0  9998
2 63169  88.9797 315.1107 0014488 353.8263   6.2713 13.61998985 53521
QIANFAN-84              
1 63170U 25046M   26025.32242629  .00000276  00000+0  40858-3 0  9991
2 63170  88.9796 315.5461 0016630   5.6610 354.4726 13.51004535 53281
QIANFAN-85              
1 63171U 25046N   26025.31951728  .00000270  00000+0  39965-3 0  9999
2 63171  88.9796 315.4181 0014122   9.0372 351.1031 13.50993913 53354
QIANFAN-86              
1 63172U 25046P   26025.25376840  .00000287  00000+0  42613-3 0  9991
2 63172  88.9798 315.2881 0012144  14.4100 345.7395 13.50995805 53425
QIANFAN-87              
1 63173U 25046Q   26025.29923329  .00000290  00000+0  43012-3 0  9994
2 63173  88.9794 315.3934 0012636   9.5602 350.5787 13.50993353 53368
QIANFAN-88              
1 63174U 25046R   26025.31537239  .00000169  00000+0  24333-3 0  9999
2 63174  88.9797 315.3473 0013287  16.8441 343.3149 13.50987864 53390
QIANFAN-89              
1 63175U 25046S   26025.27831817  .00000296  00000+0  43936-3 0  9995
2 63175  88.9797 315.5402 0017365   6.3466 353.7902 13.50965195 53280
QIANFAN-90              
1 63176U 25046T   26025.30706181  .00000291  00000+0  43189-3 0  9990
2 63176  88.9798 315.5096 0014252   6.0619 354.0702 13.50966571 53304
QIANFAN-91              
1 66033U 25233A   26025.26571785  .00000060  00000+0  74399-4 0  9990
2 66033  88.9913  57.6733 0001865  89.5599 270.5766 13.50991066 13887
QIANFAN-92              
1 66034U 25233B   26024.16276649 -.02097656  00000+0 -35842+1 0  9997
2 66034  88.9890  57.7794 0004940 247.6455 112.4172 13.48989690 13731
QIANFAN-93              
1 66035U 25233C   26025.28217442  .00000082  00000+0  10768-3 0  9994
2 66035  88.9924  57.6799 0001928  89.7077 270.4295 13.50993959 13885
QIANFAN-94              
1 66036U 25233D   26024.45681918  .00000129  00000+0  16626-3 0  9997
2 66036  88.9925  57.6724 0014204 266.5713  93.3816 13.56504062 13822
QIANFAN-95              
1 66037U 25233E   26025.28019851  .00000034  00000+0  17694-4 0  9993
2 66037  88.9921  57.2067 0011244 260.1849  99.8053 13.87071704 14142
QIANFAN-96              
1 66038U 25233F   26025.22868197  .00000056  00000+0  68884-4 0  9994
2 66038  88.9916  57.6878 0001807  88.7532 271.3826 13.50991497 13872
QIANFAN-97              
1 66039U 25233G   26025.28630241  .00000039  00000+0  42318-4 0  9993
2 66039  88.9919  57.6613 0001881  89.8964 270.2403 13.50992791 13895
QIANFAN-98              
1 66040U 25233H   26025.33511144  .00000110  00000+0  11486-3 0  9992
2 66040  88.9909  57.4126 0013684 258.2646 101.6980 13.67870427 14039
QIANFAN-99              
1 66041U 25233J   26025.29863668  .00000054  00000+0  65443-4 0  9999
2 66041  88.9920  57.6631 0001873 102.4200 257.7161 13.50992669 13891
QIANFAN-100             
1 66042U 25233K   26025.29040269  .00000045  00000+0  50806-4 0  9991
2 66042  88.9930  57.5750 0001913  89.5011 270.6359 13.50993964 13942
QIANFAN-101             
1 66043U 25233L   26025.29154661  .00000379  00000+0  15070-3 0  9997
2 66043  88.9919  57.0031 0012676 249.1293 110.8543 14.26701139 14251
QIANFAN-102             
1 66044U 25233M   26025.34392047  .00000058  00000+0  63780-4 0  9992
2 66044  88.9917  57.5795 0012972 269.8768  90.0901 13.57813082 13943
QIANFAN-103             
1 66045U 25233N   26025.31500800  .00000046  00000+0  52246-4 0  9990
2 66045  88.9920  57.6655 0001918  89.1325 271.0046 13.50987612 13893
QIANFAN-104             
1 66046U 25233P   26022.89934271 -.02108639  00000+0 -31683+1 0  9993
2 66046  88.9924  57.8174 0014249 269.5626  90.3895 13.57154121 13628
QIANFAN-105             
1 66047U 25233Q   26021.71016019  .00000167  00000+0  15207-3 0  9995
2 66047  88.9943  57.7828 0014222 267.1530  92.8009 13.78552380 13541
QIANFAN-106             
1 66048U 25233R   26025.24926976  .00000011  00000+0 -22290-5 0  9991
2 66048  88.9906  57.6498 0001967 104.1143 256.0227 13.50993245 13898
QIANFAN-107             
1 66049U 25233S   26025.33151768  .00000055  00000+0  65824-4 0  9997
2 66049  88.9922  57.6512 0001933  90.2493 269.8879 13.50990617 13907
QIANFAN-108             
1 66050U 25233T   26023.55856598 -.02080112  00000+0 -35571+1 0  9992
2 66050  88.9851  57.8378 0006297 327.2737  32.8022 13.48900487 13668
